{"type": "FeatureCollection", "features": [ {"type": "Feature", "properties": {"norad_id": 34375, "name": "IRIDIUM 33 DEB", "group": "iridium-33-debris", "lat": 32.63670739669059, "lon": -173.2854943871529, "alt_km": 851.8071881567748, "timestamp": "2025-12-08T10:52:03.332730+00:00", "meta": {"OBJECT_NAME": "IRIDIUM 33 DEB", "OBJECT_ID": "1997-051FT", "EPOCH": "2025-12-07T19:32:32.493408", "MEAN_MOTION": 14.17979319, "ECCENTRICITY": 0.01029361, "INCLINATION": 86.4328, "RA_OF_ASC_NODE": 184.6823, "ARG_OF_PERICENTER": 142.2394, "MEAN_ANOMALY": 234.0896, "EPHEMERIS_TYPE": 0, "CLASSIFICATION_TYPE": "U", "NORAD_CAT_ID": 34375, "ELEMENT_SET_NO": 999, "REV_AT_EPOCH": 86642, "BSTAR": 0.00068270447, "MEAN_MOTION_DOT": 1.491e-05, "MEAN_MOTION_DDOT": 0}, "tle": {"line1": "1 34375U 97051FT  25341.81426497  .00001491  00000+0  68270-3 0  9990", "line2": "2 34375  86.4328 184.6823 0102936 142.2394 234.0896 14.17979319866422"}}, "geometry": {"type": "Point", "coordinates": [-173.2854943871529, 32.63670739669059]}}, {"type": "Feature", "properties": {"norad_id": 34376, "name": "IRIDIUM 33 DEB", "group": "iridium-33-debris", "lat": 79.05415505420109, "lon": 28.024070509917347, "alt_km": 681.6183461631645, "timestamp": "2025-12-08T10:52:03.332740+00:00", "meta": {"OBJECT_NAME": "IRIDIUM 33 DEB", "OBJECT_ID": "1997-051FU", "EPOCH": "2025-12-07T19:43:26.419584", "MEAN_MOTION": 14.62463862, "ECCENTRICITY": 0.00266038, "INCLINATION": 86.2983, "RA_OF_ASC_NODE": 8.7505, "ARG_OF_PERICENTER": 183.3452, "MEAN_ANOMALY": 176.7586, "EPHEMERIS_TYPE": 0, "CLASSIFICATION_TYPE": "U", "NORAD_CAT_ID": 34376, "ELEMENT_SET_NO": 999, "REV_AT_EPOCH": 87935, "BSTAR": 0.0023918426, "MEAN_MOTION_DOT": 0.00012205, "MEAN_MOTION_DDOT": 0}, "tle": {"line1": "1 34376U 97051FU  25341.82183356  .00012205  00000+0  23918-2 0  9990", "line2": "2 34376  86.2983   8.7505 0026603 183.3452 176.7586 14.62463862879353"}}, "geometry": {"type": "Point", "coordinates": [28.024070509917347, 79.05415505420109]}}, {"type": "Feature", "properties": {"norad_id": 34486, "name": "IRIDIUM 33 DEB", "group": "iridium-33-debris", "lat": 33.59213657404135, "lon": -168.39840644649854, "alt_km": 570.1474248664035, "timestamp": "2025-12-08T10:52:03.332750+00:00", "meta": {"OBJECT_NAME": "IRIDIUM 33 DEB", "OBJECT_ID": "1997-051GB", "EPOCH": "2025-12-07T20:32:12.361632", "MEAN_MOTION": 14.95471709, "ECCENTRICITY": 0.00131901, "INCLINATION": 86.393, "RA_OF_ASC_NODE": 14.2783, "ARG_OF_PERICENTER": 128.7579, "MEAN_ANOMALY": 44.8246, "EPHEMERIS_TYPE": 0, "CLASSIFICATION_TYPE": "U", "NORAD_CAT_ID": 34486, "ELEMENT_SET_NO": 999, "REV_AT_EPOCH": 88913, "BSTAR": 0.003459749, "MEAN_MOTION_DOT": 0.00038525, "MEAN_MOTION_DDOT": 0}, "tle": {"line1": "1 34486U 97051GB  25341.85569863  .00038525  00000+0  34597-2 0  9994", "line2": "2 34486  86.3930  14.2783 0013190 128.7579  44.8246 14.95471709889138"}}, "geometry": {"type": "Point", "coordinates": [-168.39840644649854, 33.59213657404135]}}, {"type": "Feature", "properties": {"norad_id": 34487, "name": "IRIDIUM 33 DEB", "group": "iridium-33-debris", "lat": -69.55638795405208, "lon": -155.90038033912543, "alt_km": 762.3712883890867, "timestamp": "2025-12-08T10:52:03.332761+00:00", "meta": {"OBJECT_NAME": "IRIDIUM 33 DEB", "OBJECT_ID": "1997-051GC", "EPOCH": "2025-12-07T08:51:00.080352", "MEAN_MOTION": 14.43206052, "ECCENTRICITY": 0.0032325, "INCLINATION": 86.344, "RA_OF_ASC_NODE": 14.6897, "ARG_OF_PERICENTER": 145.3216, "MEAN_ANOMALY": 235.4285, "EPHEMERIS_TYPE": 0, "CLASSIFICATION_TYPE": "U", "NORAD_CAT_ID": 34487, "ELEMENT_SET_NO": 999, "REV_AT_EPOCH": 88171, "BSTAR": 0.00034860928, "MEAN_MOTION_DOT": 1.199e-05, "MEAN_MOTION_DDOT": 0}, "tle": {"line1": "1 34487U 97051GC  25341.36875093  .00001199  00000+0  34861-3 0  9998", "line2": "2 34487  86.3440  14.6897 0032325 145.3216 235.4285 14.43206052881716"}}, "geometry": {"type": "Point", "coordinates": [-155.90038033912543, -69.55638795405208]}}, {"type": "Feature", "properties": {"norad_id": 34488, "name": "IRIDIUM 33 DEB", "group": "iridium-33-debris", "lat": -18.618813308758735, "lon": -53.307828628608014, "alt_km": 484.67853303582706, "timestamp": "2025-12-08T10:52:03.332771+00:00", "meta": {"OBJECT_NAME": "IRIDIUM 33 DEB", "OBJECT_ID": "1997-051GD", "EPOCH": "2025-12-07T20:48:04.872384", "MEAN_MOTION": 15.27700867, "ECCENTRICITY": 0.00145083, "INCLINATION": 86.3249, "RA_OF_ASC_NODE": 308.2225, "ARG_OF_PERICENTER": 58.5485, "MEAN_ANOMALY": 301.7178, "EPHEMERIS_TYPE": 0, "CLASSIFICATION_TYPE": "U", "NORAD_CAT_ID": 34488, "ELEMENT_SET_NO": 999, "REV_AT_EPOCH": 89165, "BSTAR": 0.0065853927, "MEAN_MOTION_DOT": 0.00182761, "MEAN_MOTION_DDOT": 0}, "tle": {"line1": "1 34488U 97051GD  25341.86672306  .00182761  00000+0  65854-2 0  9996", "line2": "2 34488  86.3249 308.2225 0014508  58.5485 301.7178 15.27700867891655"}}, "geometry": {"type": "Point", "coordinates": [-53.307828628608014, -18.618813308758735]}}, {"type": "Feature", "properties": {"norad_id": 34492, "name": "IRIDIUM 33 DEB", "group": "iridium-33-debris", "lat": -69.72600757865887, "lon": 165.9737948763481, "alt_km": 677.8552857322766, "timestamp": "2025-12-08T10:52:03.332782+00:00", "meta": {"OBJECT_NAME": "IRIDIUM 33 DEB", "OBJECT_ID": "1997-051GH", "EPOCH": "2025-12-07T23:50:44.784960", "MEAN_MOTION": 14.25534668, "ECCENTRICITY": 0.0189621, "INCLINATION": 86.4724, "RA_OF_ASC_NODE": 336.5463, "ARG_OF_PERICENTER": 253.6464, "MEAN_ANOMALY": 161.0806, "EPHEMERIS_TYPE": 0, "CLASSIFICATION_TYPE": "U", "NORAD_CAT_ID": 34492, "ELEMENT_SET_NO": 999, "REV_AT_EPOCH": 84991, "BSTAR": 0.0068533726, "MEAN_MOTION_DOT": 0.00019616, "MEAN_MOTION_DDOT": 0}, "tle": {"line1": "1 34492U 97051GH  25341.99357390  .00019616  00000+0  68534-2 0  9994", "line2": "2 34492  86.4724 336.5463 0189621 253.6464 161.0806 14.25534668849919"}}, "geometry": {"type": "Point", "coordinates": [165.9737948763481, -69.72600757865887]}}, {"type": "Feature", "properties": {"norad_id": 34497, "name": "IRIDIUM 33 DEB", "group": "iridium-33-debris", "lat": 77.9464707655096, "lon": -143.51457254234725, "alt_km": 810.1900385710242, "timestamp": "2025-12-08T10:52:03.332793+00:00", "meta": {"OBJECT_NAME": "IRIDIUM 33 DEB", "OBJECT_ID": "1997-051GN", "EPOCH": "2025-12-07T04:14:57.003360", "MEAN_MOTION": 14.27428897, "ECCENTRICITY": 0.00793764, "INCLINATION": 86.2782, "RA_OF_ASC_NODE": 54.778, "ARG_OF_PERICENTER": 357.6873, "MEAN_ANOMALY": 31.1496, "EPHEMERIS_TYPE": 0, "CLASSIFICATION_TYPE": "U", "NORAD_CAT_ID": 34497, "ELEMENT_SET_NO": 999, "REV_AT_EPOCH": 86804, "BSTAR": 0.0010122974, "MEAN_MOTION_DOT": 2.585e-05, "MEAN_MOTION_DDOT": 0}, "tle": {"line1": "1 34497U 97051GN  25341.17704865  .00002585  00000+0  10123-2 0  9990", "line2": "2 34497  86.2782  54.7780 0079376 357.6873  31.1496 14.27428897868046"}}, "geometry": {"type": "Point", "coordinates": [-143.51457254234725, 77.9464707655096]}}, {"type": "Feature", "properties": {"norad_id": 34508, "name": "IRIDIUM 33 DEB", "group": "iridium-33-debris", "lat": 86.26036152328706, "lon": -179.36120484297373, "alt_km": 762.446343696286, "timestamp": "2025-12-08T10:52:03.332803+00:00", "meta": {"OBJECT_NAME": "IRIDIUM 33 DEB", "OBJECT_ID": "1997-051GZ", "EPOCH": "2025-12-07T19:25:27.527232", "MEAN_MOTION": 14.38361799, "ECCENTRICITY": 0.00657554, "INCLINATION": 86.3707, "RA_OF_ASC_NODE": 104.7333, "ARG_OF_PERICENTER": 188.9848, "MEAN_ANOMALY": 171.0179, "EPHEMERIS_TYPE": 0, "CLASSIFICATION_TYPE": "U", "NORAD_CAT_ID": 34508, "ELEMENT_SET_NO": 999, "REV_AT_EPOCH": 87238, "BSTAR": 0.0028505421, "MEAN_MOTION_DOT": 8.927e-05, "MEAN_MOTION_DDOT": 0}, "tle": {"line1": "1 34508U 97051GZ  25341.80934638  .00008927  00000+0  28505-2 0  9995", "line2": "2 34508  86.3707 104.7333 0065755 188.9848 171.0179 14.38361799872383"}}, "geometry": {"type": "Point", "coordinates": [-179.36120484297373, 86.26036152328706]}}, {"type": "Feature", "properties": {"norad_id": 34521, "name": "IRIDIUM 33 DEB", "group": "iridium-33-debris", "lat": -63.12104792268118, "lon": -140.38949563529826, "alt_km": 689.0085952091167, "timestamp": "2025-12-08T10:52:03.332814+00:00", "meta": {"OBJECT_NAME": "IRIDIUM 33 DEB", "OBJECT_ID": "1997-051HN", "EPOCH": "2025-12-07T14:03:52.998048", "MEAN_MOTION": 14.63299269, "ECCENTRICITY": 0.00011103, "INCLINATION": 86.38, "RA_OF_ASC_NODE": 32.817, "ARG_OF_PERICENTER": 253.2425, "MEAN_ANOMALY": 106.8665, "EPHEMERIS_TYPE": 0, "CLASSIFICATION_TYPE": "U", "NORAD_CAT_ID": 34521, "ELEMENT_SET_NO": 999, "REV_AT_EPOCH": 88397, "BSTAR": 0.0015075836, "MEAN_MOTION_DOT": 7.799e-05, "MEAN_MOTION_DDOT": 0}, "tle": {"line1": "1 34521U 97051HN  25341.58603007  .00007799  00000+0  15076-2 0  9993", "line2": "2 34521  86.3800  32.8170 0001110 253.2425 106.8665 14.63299269883977"}}, "geometry": {"type": "Point", "coordinates": [-140.38949563529826, -63.12104792268118]}}, {"type": "Feature", "properties": {"norad_id": 34525, "name": "IRIDIUM 33 DEB", "group": "iridium-33-debris", "lat": 17.06315382767301, "lon": 49.78913791362247, "alt_km": 749.3181711396801, "timestamp": "2025-12-08T10:52:03.332824+00:00", "meta": {"OBJECT_NAME": "IRIDIUM 33 DEB", "OBJECT_ID": "1997-051HS", "EPOCH": "2025-12-07T15:31:26.608800", "MEAN_MOTION": 14.42887569, "ECCENTRICITY": 0.00066123, "INCLINATION": 86.3731, "RA_OF_ASC_NODE": 49.0175, "ARG_OF_PERICENTER": 106.9263, "MEAN_ANOMALY": 46.4385, "EPHEMERIS_TYPE": 0, "CLASSIFICATION_TYPE": "U", "NORAD_CAT_ID": 34525, "ELEMENT_SET_NO": 999, "REV_AT_EPOCH": 88014, "BSTAR": 0.00069229009, "MEAN_MOTION_DOT": 2.331e-05, "MEAN_MOTION_DDOT": 0}, "tle": {"line1": "1 34525U 97051HS  25341.64683575  .00002331  00000+0  69229-3 0  9999", "line2": "2 34525  86.3731  49.0175 0006612 106.9263  46.4385 14.42887569880142"}}, "geometry": {"type": "Point", "coordinates": [49.78913791362247, 17.06315382767301]}}]}